{
    "CCSDS_OMM_VERS": "3.0",
    "COMMENT": "GENERATED VIA SPACE-TRACK.ORG API",
    "CREATION_DATE": "2025-05-22T17:14:14",
    "ORIGINATOR": "18 SPCS",
    "OBJECT_NAME": "BEIDOU 3M8",
    "OBJECT_ID": "2018-029B",
    "CENTER_NAME": "EARTH",
    "REF_FRAME": "TEME",
    "TIME_SYSTEM": "UTC",
    "MEAN_ELEMENT_THEORY": "SGP4",
    "EPOCH": "2025-05-22T12:21:29.311776",
    "MEAN_MOTION": "1.86229015",
    "ECCENTRICITY": "0.00041770",
    "INCLINATION": "54.5428",
    "RA_OF_ASC_NODE": "313.6054",
    "ARG_OF_PERICENTER": "29.1907",
    "MEAN_ANOMALY": "330.8273",
    "EPHEMERIS_TYPE": "0",
    "CLASSIFICATION_TYPE": "U",
    "NORAD_CAT_ID": "43246",
    "ELEMENT_SET_NO": "999",
    "REV_AT_EPOCH": "4860",
    "BSTAR": "0.00000000000000",
    "MEAN_MOTION_DOT": "-0.00000055",
    "MEAN_MOTION_DDOT": "0.0000000000000",
    "SEMIMAJOR_AXIS": "27906.387",
    "PERIOD": "773.241",
    "APOAPSIS": "21539.908",
    "PERIAPSIS": "21516.595",
    "OBJECT_TYPE": "PAYLOAD",
    "RCS_SIZE": "LARGE",
    "COUNTRY_CODE": "PRC",
    "LAUNCH_DATE": "2018-03-29",
    "SITE": "XSC",
    "DECAY_DATE": null,
    "FILE": "4736220",
    "GP_ID": "288144943",
    "TLE_LINE0": "0 BEIDOU 3M8",
    "TLE_LINE1": "1 43246U 18029B   25142.51492259 -.00000055  00000-0  00000-0 0  9991",
    "TLE_LINE2": "2 43246  54.5428 313.6054 0004177  29.1907 330.8273  1.86229015 48606"
}